COSMOS 2534 [GLONASS-M] 
1 44299U 19030A   26174.20089889  .00000095  00000+0  00000+0 0  9997
2 44299  64.3690 192.4139 0013464 275.0352 157.6045  2.13102283 55054
BEIDOU-3 IGSO-2         
1 44337U 19035A   26174.86225344 -.00000062  00000+0  00000+0 0  9990
2 44337  55.2489 158.8038 0039423 216.4706 326.6444  1.00264372 25737
NAVSTAR 78 (USA 293)    
1 44506U 19056A   26174.86769734 -.00000103  00000+0  00000+0 0  9993
2 44506  55.6337 330.8764 0062316 197.6606 333.5530  2.00570063 50206
BEIDOU-3 M24            
1 44542U 19061A   26173.61199497  .00000094  00000+0  00000+0 0  9992
2 44542  54.3965 182.5445 0008447 358.6197   1.4065  1.86229121 45898
BEIDOU-3 M23            
1 44543U 19061B   26174.55218917  .00000102  00000+0  00000+0 0  9996
2 44543  54.3954 182.4810 0005823 338.7823 203.1503  1.86227312 45913
EUTELSAT 5 WEST B       
1 44624U 19067A   26176.16753398 -.00000033  00000+0  00000+0 0  9992
2 44624   0.0620   2.1074 0003361  91.5645 234.9471  1.00271347 24514
BEIDOU-3 M22            
1 44793U 19078A   26173.98886353 -.00000107  00000+0  00000+0 0  9998
2 44793  53.9301 299.6233 0006249  51.2109 308.8401  1.86227077 44757
BEIDOU-3 M21            
1 44794U 19078B   26171.44396153 -.00000092  00000+0  00000+0 0  9995
2 44794  53.9054 299.6746 0003921  48.8810 311.1504  1.86227692 44717
COSMOS 2544 [GLONASS-M] 
1 44850U 19088A   26175.06827285 -.00000068  00000+0  00000+0 0  9999
2 44850  65.5696  73.5010 0012943 257.9602 101.9270  2.13102868 50866
BEIDOU-3 M19            
1 44864U 19090A   26175.25055926 -.00000095  00000+0  00000+0 0  9993
2 44864  56.5650  62.5564 0017586 297.6479 291.8664  1.86231520 44365
BEIDOU-3 M20            
1 44865U 19090B   26175.11236480 -.00000095  00000+0  00000+0 0  9995
2 44865  56.5667  62.5955 0015371 311.9218 274.5279  1.86231501 44346
BEIDOU-3 G2             
1 45344U 20017A   26176.18434741 -.00000134  00000+0  00000+0 0  9991
2 45344   2.8809  47.4841 0002453  36.6882 335.6079  1.00271985 23342
COSMOS 2545 [GLONASS-M] 
1 45358U 20018A   26173.38622922 -.00000076  00000+0  00000+0 0  9991
2 45358  64.3519 312.2361 0008556 229.6925 130.2259  2.13102349 48775
BEIDOU-3 G3             
1 45807U 20040A   26176.11895332 -.00000346  00000+0  00000+0 0  9996
2 45807   2.4673  67.4726 0002649 326.0184  33.1077  1.00275293 22144
NAVSTAR 79 (USA 304)    
1 45854U 20041A   26173.71775760 -.00000098  00000+0  00000+0 0  9998
2 45854  56.6735  28.7279 0064233 204.6080 154.4402  2.00558666 44144
GALAXY 30 (G-30)        
1 46114U 20056C   26175.23825740  .00000044  00000+0  00000+0 0  9997
2 46114   0.0116  48.6374 0002203  40.4727 144.0438  1.00270568 21364
COSMOS 2547 [GLONASS-K] 
1 46805U 20075A   26174.04506766  .00000094  00000+0  00000+0 0  9992
2 46805  64.5998 192.2800 0009389 239.8936 120.0622  2.13100075 44030
NAVSTAR 80 (USA 309)    
1 46826U 20078A   26174.74953767  .00000065  00000+0  00000+0 0  9990
2 46826  53.9790 210.5121 0073734 207.4039 153.1814  2.00565058 41641
NAVSTAR 81 (USA 319)    
1 48859U 21054A   26175.02578091 -.00000104  00000+0  00000+0 0  9993
2 48859  55.1708 332.1841 0025615 228.3259 158.0115  2.00568788 36895
QZS-1R (MICHIBIKI-1R)   
1 49336U 21096A   26174.62472878 -.00000312  00000+0  00000+0 0  9992
2 49336  37.4749  79.4864 0755289 271.9239 278.8307  1.00253892 17078
GSAT0223 (GALILEO 27)   
1 49809U 21116A   26174.44047914 -.00000098  00000+0  00000+0 0  9990
2 49809  57.1590 341.5051 0001600 183.5383 174.0725  1.70476308 28288
GSAT0224 (GALILEO 28)   
1 49810U 21116B   26174.82570932 -.00000098  00000+0  00000+0 0  9995
2 49810  57.1589 341.4937 0001340 159.7817 186.8805  1.70476382 28314
COSMOS 2557 [GLONASS-K] 
1 52984U 22075A   26173.27080705 -.00000076  00000+0  00000+0 0  9994
2 52984  64.2952 314.3058 0010303 273.7574  86.1177  2.13102021 30829
COSMOS 2559 [GLONASS-K] 
1 54031U 22130A   26174.96748302 -.00000084  00000+0  00000+0 0  9991
2 54031  64.2669 314.3295 0012700 178.7771 181.2176  2.13101763 28834
COSMOS 2564 [GLONASS-M] 
1 54377U 22161A   26174.81073219  .00000101  00000+0  00000+0 0  9999
2 54377  64.7423 192.4918 0012242 224.9828 134.9691  2.13102094 27772
NAVSTAR 82 (USA 343)    
1 55268U 23009A   26175.93576140  .00000055  00000+0  00000+0 0  9994
2 55268  55.1239 148.2141 0006334 317.2838  44.5224  2.00571146 25400
BEIDOU-3 G4             
1 56564U 23066A   26175.98232464 -.00000272  00000+0  00000+0 0  9992
2 56564   0.4776 333.5411 0004706 175.9503 257.3310  1.00271762 11479
NVS-01 (IRNSS-1J)       
1 56759U 23076A   26176.05160094 -.00000324  00000+0  00000+0 0  9995
2 56759   2.1471 243.9801 0002853  14.3188 162.9917  1.00275688 11193
COSMOS 2569 [GLONASS-K2]
1 57517U 23114A   26172.94601313 -.00000057  00000+0  00000+0 0  9992
2 57517  65.3047  72.4599 0010483 296.8456  63.0820  2.13103733 22369
BEIDOU-3 M28            
1 58654U 23207A   26175.81668909 -.00000096  00000+0  00000+0 0  9994
2 58654  55.7594  62.0455 0003030 351.9089   8.1238  1.86229863 16989
BEIDOU-3 M26            
1 58655U 23207B   26175.61418578 -.00000096  00000+0  00000+0 0  9998
2 58655  55.7615  62.0389 0002779 321.7862  38.2312  1.86229838 16960
